BEIDOU-2 IGSO-1 (C06)   
1 36828U 10036A   26073.67984281 -.00000142  00000+0  00000+0 0  9996
2 36828  54.2922 163.8180 0054578 219.4923 137.9589  1.00250102 57149
BEIDOU-2 G4 (C04)       
1 37210U 10057A   26074.24536448 -.00000111  00000+0  00000+0 0  9993
2 37210   3.4121  69.4786 0008093 213.4177 138.3151  1.00272500 56348
BEIDOU-2 IGSO-2 (C07)   
1 37256U 10068A   26069.49439653 -.00000157  00000+0  00000+0 0  9996
2 37256  47.7215 273.0501 0047490 213.2827 326.5355  1.00257833 55804
BEIDOU-2 IGSO-3 (C08)   
1 37384U 11013A   26073.84886110 -.00000147  00000+0  00000+0 0  9996
2 37384  62.2850  41.0424 0034774 190.0864 353.6522  1.00291120 54717
BEIDOU-2 IGSO-4 (C09)   
1 37763U 11038A   26073.76842311 -.00000094  00000+0  00000+0 0  9991
2 37763  54.5890 166.5285 0155368 231.0457 145.5369  1.00264319 53706
BEIDOU-2 IGSO-5 (C10)   
1 37948U 11073A   26074.01527030 -.00000091  00000+0  00000+0 0  9999
2 37948  47.8502 272.7080 0108939 221.0218 139.4295  1.00270273 52193
BEIDOU-2 G5 (C05)       
1 38091U 12008A   26074.22188451  .00000058  00000+0  00000+0 0  9993
2 38091   3.3378  70.2407 0013652 257.4109 343.7829  1.00270166 51423
BEIDOU-2 M3 (C11)       
1 38250U 12018A   26073.14721841 -.00000025  00000+0  00000+0 0  9992
2 38250  55.8387 308.0798 0021028 279.8412  79.9804  1.86230226 94175
BEIDOU-2 M4 (C12)       
1 38251U 12018B   26072.00546832 -.00000031  00000+0  00000+0 0  9999
2 38251  55.7402 307.3399 0012191 287.4004  72.5220  1.86229915 94157
BEIDOU-2 M6 (C14)       
1 38775U 12050B   26073.32648245  .00000019  00000+0  00000+0 0  9998
2 38775  56.4625  66.0292 0014164 342.6932  17.2813  1.86231068 91546
BEIDOU-2 G6 (C02)       
1 38953U 12059A   26074.08425727 -.00000174  00000+0  00000+0 0  9990
2 38953   4.1815  74.5255 0010567 306.7162 265.7371  1.00275751 48967
BEIDOU-3S IGSO-1S (C31) 
1 40549U 15019A   26073.58735553 -.00000137  00000+0  00000+0 0  9997
2 40549  49.3720 296.6012 0035739 190.1845 353.2607  1.00271852 40129
BEIDOU-3S M2S (C58)     
1 40748U 15037A   26073.82023753 -.00000018  00000+0  00000+0 0  9995
2 40748  54.9537 305.2964 0008529 278.6082  81.3544  1.86232296 72366
BEIDOU-3S M1S (C57)     
1 40749U 15037B   26074.03921001 -.00000017  00000+0  00000+0 0  9992
2 40749  54.9501 305.2769 0004682  36.1648 323.9265  1.86254832 72378
BEIDOU-2 IGSO-6 (C13)   
1 41434U 16021A   26073.87235635 -.00000128  00000+0  00000+0 0  9993
2 41434  60.1011  38.9760 0059349 233.2646 310.0546  1.00276688 36530
BEIDOU-2 G7 (C03)       
1 41586U 16037A   26074.08937062 -.00000353  00000+0  00000+0 0  9995
2 41586   1.4861  68.3228 0007636 346.6372 260.4575  1.00275181  5940
BEIDOU-3 M1 (C19)       
1 43001U 17069A   26072.01799936  .00000011  00000+0  00000+0 0  9992
2 43001  56.6089  66.2503 0012510 309.8790  50.0328  1.86231473 56814
